{
  "norad_id": 60179,
  "name": "ZHONGXING-3A",
  "history": [
    {
      "epoch": "2026-03-24T12:00:37.859616",
      "apogee_km": 35797.04439211473,
      "perigee_km": 35777.60611401607,
      "latitude_deg": 0.03727413863854178,
      "longitude_deg": -138.05793376010843,
      "semi_major_axis_km": 42165.4622530654,
      "eccentricity": 0.0002305,
      "inclination_deg": 0.0442,
      "raan_deg": 2.7357,
      "arg_perigee_deg": 82.4897,
      "mean_anomaly_deg": 18.461,
      "mean_motion_rev_day": 1.0026918
    }
  ]
}