{"fetched_at":"2026-03-29T02:12:04Z","count":15717,"tles":[{"name":"ZHONGXING-3A","line1":"1 60179U 24122A   26083.50043819 -.00000321  00000+0  00000+0 0  9998","line2":"2 60179   0.0442   2.7357 0002305  82.4897  18.4610  1.00269180  6460","category":"Other"}]}